O3B MPOWER F1           
1 54755U 22174A   23287.80492053 -.00000016  00000+0  00000+0 0  9991
2 54755   0.0501  18.6902 0005129 199.8696  11.3337  5.00118432 16510
